{"type":"FeatureCollection","features":[{"type":"Feature","geometry":{"type":"Polygon","coordinates":[[[-0.4962840104467738,44.93129922003068],[-0.4729901501152825,44.93773237638804],[-0.4626277676052186,44.94616509580106],[-0.4620220979504304,44.94327881053967],[-0.4602641418103092,44.94253000762078],[-0.47000622157497834,44.93477616215709],[-0.49432277949049225,44.92798288915496],[-0.4974747293222559,44.928897202481636],[-0.49765070859928007,44.930104028586086],[-0.4962840104467738,44.93129922003068]]]},"properties":{"id":1,"zonage":"emprise"}},{"type":"Feature","geometry":{"type":"Polygon","coordinates":[[[-0.43133639184886224,44.98001517672277],[-0.42933363005057384,44.98648367120106],[-0.42763375901461165,45.001646340606165],[-0.4224192606417904,45.01328031172368],[-0.4190167409293381,45.02536414609439],[-0.41644167016919503,45.03102633114031],[-0.3919958852824072,45.06953775746661],[-0.37585709641889786,45.08854712119365],[-0.3619237848383839,45.10707119900943],[-0.3527974552340863,45.1161416885414],[-0.34144241262983654,45.12378306208636],[-0.30911531204720427,45.13807823692718],[-0.30070845411941033,45.143242145159114],[-0.2954570228928584,45.14755078981462],[-0.2856445343976956,45.1573563806368],[-0.28549530765127323,45.15751481565634],[-0.28549529476231417,45.15751481005969],[-0.28534468981619676,45.15767495133837],[-0.2853447018798898,45.15767495621693],[-0.2853445069549074,45.15767514577847],[-0.28500552883012287,45.15803558805975],[-0.28500558997988834,45.158035442134434],[-0.2849255960555074,45.15812050131272],[-0.2849256459000934,45.15812052988698],[-0.2849037222123911,45.158143760218145],[-0.28406604667663393,45.15903447777319],[-0.2840659885601946,45.159034428422395],[-0.2836400765455008,45.1594872876662],[-0.283640143850771,45.159487299717576],[-0.2836364878875744,45.159491103376624],[-0.2833644056529286,45.159780400111124],[-0.2833644416646521,45.15978042107561],[-0.2833593590245421,45.15978576603703],[-0.2828045234568457,45.16037570575922],[-0.2828015225516222,45.160372393137386],[-0.2826584452466646,45.16052285483828],[-0.28203487645182773,45.161183588096456],[-0.28204041899756693,45.1611869941016],[-0.2818558304592891,45.16137330516215],[-0.2814997546283153,45.16175060297741],[-0.2814932706433767,45.161748165537944],[-0.28060736794647706,45.16267979076416],[-0.2805774960695267,45.16267367423011],[-0.28034322771223386,45.162917406704786],[-0.280379780592399,45.16291061810244],[-0.28018320171427863,45.163083897531564],[-0.2796991104930754,45.16358754536806],[-0.2796753669966449,45.1635741160251],[-0.27960973323911176,45.16364036225625],[-0.2796668798233307,45.1636191026651],[-0.27940307348497,45.16384895049432],[-0.2788965721671218,45.16436017832341],[-0.2788602775022331,45.16432187498551],[-0.27740735417547935,45.165587770546445],[-0.2763258286232406,45.166668535842035],[-0.2753273526015135,45.167416674052305],[-0.2752557337422276,45.16748632228953],[-0.2753245276548467,45.167506010827466],[-0.2749290689834587,45.16780399873449],[-0.2747840186055602,45.1679450579922],[-0.2747576437937393,45.16793317186229],[-0.27444532733902205,45.168168510049064],[-0.2738919130549333,45.168650685999225],[-0.27388572147737306,45.168634970926654],[-0.2736923274577115,45.16880544298166],[-0.2733025018494529,45.16902965737083],[-0.2730998124721507,45.169182388838585],[-0.27317587064961596,45.16920069292377],[-0.27290207248364867,45.16937160881384],[-0.2729366556007264,45.16938130631659],[-0.272440786423024,45.16967898129505],[-0.27061173000888294,45.17105722062097],[-0.270613035694468,45.17105885216263],[-0.2706003149525466,45.17106582214875],[-0.2705699408614118,45.171088709778985],[-0.2705696084403168,45.17108264695073],[-0.27036926948101925,45.17119241725922],[-0.2704019974464161,45.17120465094614],[-0.2696421549332675,45.17167647951184],[-0.26911387144489124,45.17207231181518],[-0.26747593554350724,45.17302160586365],[-0.2651441830843629,45.17446952092411],[-0.265212018172752,45.17448573094381],[-0.2645975381744252,45.17481522415456],[-0.26460584003832904,45.17483399875116],[-0.264343486454259,45.174966718088],[-0.2641567487690051,45.17508267392447],[-0.26417530813515727,45.17507728812001],[-0.2641099729805007,45.17511171961857],[-0.2640742334268362,45.17513391229936],[-0.26407191449843903,45.17513177636409],[-0.2635858550966199,45.17538792871702],[-0.26363155532918336,45.17537979601257],[-0.26310762176734676,45.17563995674505],[-0.2615213218981933,45.176475933669735],[-0.2612542905088136,45.17664262546415],[-0.261254139715419,45.17662755512298],[-0.26103748144783395,45.17675312316492],[-0.26083131877149135,45.17683956396631],[-0.2606703217810224,45.176924409065016],[-0.26068887486671827,45.17692922259267],[-0.2605036135047466,45.17701226400016],[-0.26047232366533773,45.177028753684255],[-0.26047845733509256,45.17703456935091],[-0.2603759541999409,45.177079540203806],[-0.26030644469281744,45.17711617157794],[-0.26020802030959056,45.177168948179514],[-0.26020852769458436,45.177167773644264],[-0.2601798635255428,45.17718287960522],[-0.25949397519988104,45.17751144136261],[-0.25950550363255614,45.17751269248704],[-0.2594082745375053,45.17755249463497],[-0.25899622599388894,45.17774987865298],[-0.2589378788608638,45.17778490499127],[-0.2589377553066207,45.177777887923654],[-0.2581862575622911,45.17813787862522],[-0.2582367806064535,45.17805858707632],[-0.2579568511134517,45.17819758687944],[-0.25706035881516404,45.178651104081176],[-0.25705453034068504,45.17864563688096],[-0.25689323458207963,45.17872572875856],[-0.25690683375977763,45.17862448173021],[-0.25531022409152604,45.17934014479485],[-0.25534962840527925,45.17939639236961],[-0.2543621229315149,45.17976512091472],[-0.25338546671168305,45.1802028965322],[-0.25337143610404617,45.18015260867567],[-0.25222380431487423,45.180656105278906],[-0.2521187179326213,45.18060279471332],[-0.2515952711434833,45.18079824656461],[-0.25179413033763914,45.18081938448589],[-0.2498334204266132,45.181472100793194],[-0.24881661259066465,45.18188834590872],[-0.24881679217845606,45.1818770679677],[-0.2486742814564856,45.181936820495324],[-0.2477136992641529,45.182247601925],[-0.24745105841047005,45.182345670424304],[-0.24744264433407334,45.18233529753227],[-0.24726236302293378,45.182393624746815],[-0.2472802618606668,45.182401824376676],[-0.24577817000837893,45.18288624315375],[-0.24578425632559942,45.18288771175649],[-0.2427020290633399,45.18387937579917],[-0.24270231400333256,45.1838794816234],[-0.2410888005331706,45.184398546561155],[-0.2410191193428639,45.18442101847387],[-0.24101912293534428,45.184420961743086],[-0.24046718340556628,45.18459851988745],[-0.2404672638324444,45.18459855860116],[-0.23971219742633534,45.18484143516794],[-0.23970847954819227,45.184842672841945],[-0.23970844270660968,45.184842642920565],[-0.2386742395353567,45.18517530732406],[-0.23745515629323397,45.185567484630845],[-0.2369598643466002,45.18572683797254],[-0.18814957497150422,45.2015186480186],[-0.18727708951893332,45.20183361736584],[-0.1802388375683432,45.20491123282304],[-0.17662261227948672,45.20675966439513],[-0.17090809367125795,45.210116963268895],[-0.16738987129239308,45.21270672138047],[-0.16360794432901327,45.21564215527101],[-0.16198363050919704,45.21716082470156],[-0.16028360122245447,45.21891722758858],[-0.1549228320483931,45.225220017148466],[-0.13878942531529728,45.24801136814957],[-0.13805837531723839,45.249056934491584],[-0.13805827830271078,45.249055531705245],[-0.13778263150335424,45.249449620505416],[-0.1377755022183413,45.24944371765722],[-0.1367916900557725,45.25083353003146],[-0.13592626233561594,45.25185810186054],[-0.13605703954059664,45.25181494903546],[-0.13472060803970357,45.25333901195897],[-0.13485665902405405,45.25332373707254],[-0.13333924959934104,45.25498826724555],[-0.13348397270851925,45.25492383915515],[-0.13254407814374147,45.25590397046177],[-0.13257507073732325,45.255919695756106],[-0.1321114785372532,45.25637438892046],[-0.13186502186712284,45.25666616668009],[-0.13165025888240184,45.2568526358564],[-0.13167157874058494,45.25686502525438],[-0.1314632680657888,45.257053673788015],[-0.131285315027663,45.25725661095864],[-0.1312758795109137,45.25725169181267],[-0.1311267358334066,45.25741529574664],[-0.13110888458120784,45.25740060444012],[-0.1305616506175969,45.2579712654056],[-0.13065292178370752,45.25780494747079],[-0.12887720096995114,45.259546581854856],[-0.1287775017379527,45.25948593454433],[-0.1282643742258932,45.259950628697965],[-0.12837065416723728,45.25999811821875],[-0.12785103580282944,45.260371302058346],[-0.12792177381663694,45.26039023296313],[-0.12696935810029888,45.26113150960652],[-0.1271294889091471,45.26106482040957],[-0.12628095651276558,45.261746834502254],[-0.12610990131837582,45.26190174404601],[-0.12610465920776867,45.261888534744955],[-0.12592585514185395,45.262032249815],[-0.12594189403869013,45.26203644639409],[-0.12570609518776493,45.262208883478415],[-0.1255063555701897,45.26236942565056],[-0.12551574027541382,45.262374156752706],[-0.12540657078315381,45.262449628399786],[-0.1250284911756337,45.26275351263754],[-0.1240092239326089,45.263487007673675],[-0.12371971818390638,45.2637383726776],[-0.12307195657570047,45.264164904237184],[-0.12244814022213706,45.264650428031814],[-0.12241235847799897,45.26461755660184],[-0.12183630380805062,45.26503881899267],[-0.12192176833662842,45.265015791038024],[-0.12141990147245602,45.26534332940217],[-0.12116812065358626,45.26552745392239],[-0.12116143704142568,45.26551201361501],[-0.11856990353072129,45.26720335191073],[-0.1185922548050484,45.2671605383796],[-0.11821922128599165,45.26741842594063],[-0.11816898250126083,45.26739336537487],[-0.11702150067661957,45.26814894768487],[-0.11591836678236547,45.26894120556189],[-0.11591847355308627,45.26894364621853],[-0.11588567003141727,45.26896468798648],[-0.1158832189077917,45.26896644835484],[-0.1158830914994158,45.26896634198182],[-0.11564942247545353,45.26911622861379],[-0.11564944610237665,45.26911762394545],[-0.11531657768455399,45.26932973138719],[-0.11500349137242429,45.269530560115115],[-0.11500862770772817,45.26953203351634],[-0.1101454891595377,45.27267659470648],[-0.110155160530132,45.27264051439262],[-0.06812257896016147,45.29960224846159],[-0.06378008073324308,45.302819474942076],[-0.05755663184906871,45.30802733084982],[-0.044031730243032724,45.32086690785001],[-0.04330728106569954,45.32172124851801],[-0.036335666626451595,45.33066308315255],[-0.03341153479357067,45.32648124089178],[-0.033961803212621815,45.32571157437082],[-0.0368079330550291,45.32237316775642],[-0.03763602694196573,45.32111547810946],[-0.038896272017456976,45.31992362223625],[-0.04051867383450601,45.3180206040125],[-0.056472611368683055,45.3029623575852],[-0.05812565474554839,45.30173775252852],[-0.05899513236296647,45.300915458496114],[-0.06092378988845102,45.299664842347674],[-0.06654172875889504,45.295502969498386],[-0.11170892997863825,45.26669523097325],[-0.11903126080922038,45.26179747986946],[-0.12169387035824361,45.25982583148229],[-0.127433757787178,45.25469314789515],[-0.1286676205216055,45.25331190638346],[-0.1459429118422739,45.22955077349557],[-0.14594514020058524,45.22954758477604],[-0.14594519851414284,45.22954762831479],[-0.1480735406980271,45.226620220578305],[-0.14802191601247783,45.22657517861447],[-0.14942626588804905,45.22465970682714],[-0.14935599956792828,45.22466791046373],[-0.15096020181962272,45.222567485329066],[-0.1515955560801105,45.2217008899157],[-0.15155261512084017,45.22169388093342],[-0.15183698071999102,45.22137159726969],[-0.15212913580660112,45.22097311051389],[-0.15217173404825518,45.22098119361193],[-0.1522051075079281,45.22093749684398],[-0.15255765971741986,45.22045258230656],[-0.15264149039045877,45.2203661290044],[-0.1526501658140311,45.22035477003909],[-0.15265174988762822,45.22035554854051],[-0.153559432196066,45.21941946953705],[-0.15516100962279394,45.217604333520676],[-0.15513043420808256,45.21756147626085],[-0.155525261670297,45.2171915111373],[-0.15591585480650588,45.21674883527446],[-0.15596255999160993,45.21678174955039],[-0.15664164223659482,45.216145429206165],[-0.15653120420301572,45.216132102025874],[-0.15722294504412299,45.2155163916794],[-0.1571016517681252,45.21557513782272],[-0.15890567791046323,45.21390596738543],[-0.1589478406519373,45.21386248558937],[-0.1589778301564303,45.21383920870986],[-0.159076601135163,45.2137478211219],[-0.15906270123948218,45.2137733345313],[-0.1597060468816724,45.213273990535825],[-0.1606197364538183,45.21241783611954],[-0.16066054825257137,45.21245662169513],[-0.16111289682757915,45.21205399157516],[-0.16109409153884308,45.212024669755706],[-0.1635411162325561,45.21017788940915],[-0.1634657101768932,45.210159518934816],[-0.1642286857906466,45.209656958348866],[-0.1641653275459347,45.20963915806922],[-0.16494446868914625,45.209118773110575],[-0.1658255160171518,45.20845384279993],[-0.16588060269464078,45.20848150082623],[-0.16647925615900386,45.20801684544785],[-0.16646948710806608,45.208011867245624],[-0.1665535293517304,45.207959197007604],[-0.16659678776523185,45.207925621231816],[-0.16675788876461217,45.207831122619666],[-0.16767005257913434,45.207259459095106],[-0.16761831805812247,45.20724691011667],[-0.16815734387095846,45.20692411249105],[-0.1681295660931788,45.20691576679073],[-0.16893994889434974,45.20645020937284],[-0.16986600989883466,45.20583169728203],[-0.16988440118791495,45.20587170142468],[-0.17027644140430045,45.20562600532459],[-0.17019689534592697,45.205632011049524],[-0.17080633064766573,45.205293917658246],[-0.1713662573015061,45.204943005202246],[-0.17137328711343883,45.204950916684545],[-0.17151937410156973,45.20485469137795],[-0.17152184210524432,45.20489697692557],[-0.1718006709154633,45.2047422924533],[-0.17302873114316106,45.20400686398925],[-0.17303301677501903,45.204058630069945],[-0.1734968830452105,45.2038012932863],[-0.17348056394914266,45.20376087844059],[-0.17412966364198282,45.2034502487418],[-0.17506841520252614,45.20292946220751],[-0.17515988654540698,45.202876912767735],[-0.1751606489864485,45.20287829412993],[-0.17519548138548735,45.20285897033316],[-0.17519494738032768,45.20285894968468],[-0.1751997202092065,45.20285661878201],[-0.17520230717130772,45.20285518362591],[-0.1752023239625826,45.20285534718902],[-0.1754308047852368,45.2027437641898],[-0.1754959735978278,45.20270553747259],[-0.17561665944306093,45.202652998497086],[-0.1782057905621308,45.20138854657376],[-0.18021049314971058,45.20050138271589],[-0.18019589902001448,45.20049077864224],[-0.18045342981434262,45.20039387318807],[-0.18113333232091108,45.20009298819174],[-0.18108659265537608,45.20015562233021],[-0.18211438614209802,45.19976887714548],[-0.18143446569577387,45.1999601800881],[-0.18291551525736854,45.19936435902494],[-0.18283194712946194,45.199386388886786],[-0.18407961197973066,45.198896046981424],[-0.184101134557819,45.19888738852347],[-0.18409974418256259,45.198888134870494],[-0.18412576367901515,45.198877909007784],[-0.18354836508358757,45.19918411262878],[-0.1833914199801579,45.19926836003673],[-0.1853399589627809,45.198420089540086],[-0.18617007098058005,45.19815164695911],[-0.18613440687868443,45.198130427531645],[-0.18903749065585748,45.19716380388062],[-0.18964690937990855,45.196934487622],[-0.18964946936093133,45.19696003673656],[-0.19148901493904785,45.1963475334816],[-0.19148180710636145,45.19643393160927],[-0.19170359866363001,45.196362208399876],[-0.19163044439283278,45.19629485239262],[-0.194634779389544,45.19532998246483],[-0.2055796501083849,45.19181390487119],[-0.2148733837190847,45.18882748015735],[-0.2205680226094362,45.18699703677518],[-0.22101284969909205,45.1868540169732],[-0.22101284541713773,45.186854015398886],[-0.22513775707266223,45.1855277213881],[-0.23856605588896218,45.181206634000866],[-0.25680903215541123,45.17434276329527],[-0.26289445400558964,45.171007778250036],[-0.26375122224912684,45.17047063546995],[-0.2710342643589445,45.16527125282138],[-0.2724804739983598,45.16408088515797],[-0.27567247260049493,45.160954152621834],[-0.28265150703758246,45.1539640805612],[-0.28599006737750743,45.150414256396516],[-0.2860429095321482,45.15043795134424],[-0.287374329045319,45.149065009971096],[-0.28725697059252553,45.149081625362044],[-0.28765645507861437,45.14869983828852],[-0.28764317501736014,45.14868374507454],[-0.2886457243469719,45.14775257554069],[-0.288588227063333,45.14773567332838],[-0.28900272323369797,45.14738536986321],[-0.2888733732257275,45.147457112844435],[-0.2895338430241217,45.14683814904706],[-0.2896767149998837,45.14669082144322],[-0.28968032311214686,45.146700874228834],[-0.2905273198455232,45.14590710543619],[-0.29046232817026263,45.146018267129584],[-0.29129168288075047,45.14522565335143],[-0.29131207745559934,45.14527606220822],[-0.2915010157236865,45.14510057602133],[-0.2919206130549367,45.14468031508003],[-0.29212008562756087,45.14475079100139],[-0.2962814844673409,45.14123386482031],[-0.3052486599349359,45.13558241585077],[-0.3324534065235021,45.1238424672795],[-0.34140117064404746,45.11908347873769],[-0.35026382556428576,45.11262214569041],[-0.35746770413084916,45.105252772715524],[-0.37144808953038155,45.08667156359708],[-0.3873846759682285,45.067928687976476],[-0.41166736817470484,45.02968306736634],[-0.41403570250696603,45.02447648040201],[-0.41744832328557285,45.0123778344274],[-0.42263488759478474,45.00082500657377],[-0.4242348082348123,44.986091467054706],[-0.4263130745020177,44.979218890207335],[-0.4349352501897018,44.965537149344705],[-0.45155321941781745,44.95023888165182],[-0.4514922464757998,44.95016548067404],[-0.45715999376564487,44.945232344883614],[-0.45964508233259244,44.945549080758504],[-0.46180458075622177,44.9469434184408],[-0.4560460509685513,44.951925850930266],[-0.45606042017367165,44.9519435673092],[-0.4407018452877192,44.96575533241031],[-0.43133639184886224,44.98001517672277]],[[-0.2705650136537182,45.17099884540376],[-0.27056428446696584,45.170985546205515],[-0.2705580868791906,45.17099018993468],[-0.2705650136537182,45.17099884540376]],[[-0.1752027246645529,45.20285925041036],[-0.17520449672275695,45.20287651195614],[-0.17523199469118408,45.20286038219988],[-0.1752027246645529,45.20285925041036]]]},"properties":{"id":2,"zonage":"emprise"}},{"type":"Feature","geometry":{"type":"Polygon","coordinates":[[[-0.003518543970262013,45.41324440608323],[-8.721760068487016e-07,45.417636405017255],[0.007013277372336589,45.419057559210096],[0.0032748722008016447,45.41437010993369],[0.003327414014125397,45.41437881638124],[-0.009421366287592735,45.39846119638047],[-0.014976925050343395,45.398916170844416],[-0.012169589551359798,45.402426869175486],[-0.012180467266058209,45.402429537583025],[-0.004011396068565266,45.412629054220695],[-0.003519448880215232,45.413244256135016],[-0.003518543970262013,45.41324440608323]]]},"properties":{"id":3,"zonage":"emprise"}},{"type":"Feature","geometry":{"type":"Polygon","coordinates":[[[0.1086399006091861,45.85376582436477],[0.10825984921269019,45.855275765524254],[0.11008062185284379,45.85780433071026],[0.11407620871310474,45.85801390996196],[0.11150897698940786,45.85185345077671],[0.11108790628482926,45.852818682028854],[0.1086399006091861,45.85376582436477]]]},"properties":{"id":4,"zonage":"emprise"}},{"type":"Feature","geometry":{"type":"Polygon","coordinates":[[[0.12421191131133336,45.8779089099232],[0.12096398424781776,45.871622672229975],[0.1206483299014134,45.874346873257146],[0.12421191131133336,45.8779089099232]]]},"properties":{"id":5,"zonage":"emprise"}},{"type":"Feature","geometry":{"type":"Polygon","coordinates":[[[0.3056731277273462,46.59309817473955],[0.29846365603525193,46.58636815230418],[0.2967025538497133,46.58664885915411],[0.29481438732604237,46.58340474489101],[0.29210829593929016,46.58249808423507],[0.2890933024288902,46.58270490068059],[0.30114053411235575,46.595041412259114],[0.3056731277273462,46.59309817473955]]]},"properties":{"id":6,"zonage":"emprise"}},{"type":"Feature","geometry":{"type":"Polygon","coordinates":[[[0.3917456768882211,46.75901989524131],[0.3943260483902761,46.759635539484364],[0.39687845782586506,46.76140187569831],[0.3972010625907483,46.75228252600705],[0.39616262614894754,46.744737904597514],[0.3911977992253534,46.74659070771419],[0.3917456768882211,46.75901989524131]]]},"properties":{"id":7,"zonage":"emprise"}},{"type":"Feature","geometry":{"type":"Polygon","coordinates":[[[0.3970637986064588,46.84714184707198],[0.3964979973194303,46.84620656903284],[0.3967731552322503,46.846754612664746],[0.3970637986064588,46.84714184707198]]]},"properties":{"id":8,"zonage":"emprise"}},{"type":"Feature","geometry":{"type":"Polygon","coordinates":[[[0.39944707638072036,46.85331030485322],[0.40197890731343255,46.85402448581279],[0.3974202522828052,46.84776419966176],[0.396647896025277,46.8497432554368],[0.3972391820685226,46.85151266439065],[0.39944707638072036,46.85331030485322]]]},"properties":{"id":9,"zonage":"emprise"}}]}